NORAD_CAT_ID,OBJECT_NAME,OBJECT_TYPE,EPOCH,MEAN_MOTION,ECCENTRICITY,INCLINATION,RA_OF_ASC_NODE,ARG_OF_PERICENTER,MEAN_ANOMALY,BSTAR,MEAN_MOTION_DOT,MEAN_MOTION_DDOT,TLE_LINE0,TLE_LINE1,TLE_LINE2,SEMIMAJOR_AXIS,PERIOD,APOGEE,PERIGEE,DECAYED
54760.0,STARLINK-5220,PAYLOAD,2024-05-01 11:59:32,15.08848058,0.000137,53.2141,204.3377,75.7647,284.3497,9.3962e-05,1.208e-05,0.0,0 STARLINK-5220,1 54760U 22175C   24122.49967902  .00001208  00000-0  93962-4 0  9990,2 54760  53.2141 204.3377 0001370  75.7647 284.3497 15.08848058 77685,6917.856,95.437,540.669,538.773,0.0
54760.0,STARLINK-5220,PAYLOAD,2024-05-02 05:28:46,15.08843481,0.000144,53.2134,201.0661,82.2074,277.9081,2.3083e-05,7.9e-07,0.0,0 STARLINK-5220,1 54760U 22175C   24123.22831969  .00000079  00000-0  23083-4 0  9997,2 54760  53.2134 201.0661 0001440  82.2074 277.9081 15.08843481 75637,6917.87,95.437,540.731,538.739,0.0
54760.0,STARLINK-5220,PAYLOAD,2024-05-02 11:50:20,15.08790575,0.0001652,53.2165,199.8758,92.8713,267.2468,0.00086925,0.00013555,0.0,0 STARLINK-5220,1 54760U 22175C   24123.49329793  .00013555  00000-0  86925-3 0  9999,2 54760  53.2165 199.8758 0001652  92.8713 267.2468 15.08790575 75674,6918.031,95.441,541.039,538.754,0.0
54760.0,STARLINK-5220,PAYLOAD,2024-05-03 11:41:06,15.08839025,0.000125,53.2155,195.4157,90.3183,269.7952,3.6491e-05,2.93e-06,0.0,0 STARLINK-5220,1 54760U 22175C   24124.48688147  .00000293  00000-0  36491-4 0  9999,2 54760  53.2155 195.4157 0001250  90.3183 269.7952 15.08839025 75822,6917.883,95.438,540.613,538.884,0.0
54760.0,STARLINK-5220,PAYLOAD,2024-05-03 21:13:25,15.08830797,0.0001261,53.2152,193.6317,84.8057,275.3079,2.6461e-05,1.33e-06,0.0,0 STARLINK-5220,1 54760U 22175C   24124.88432790  .00000133  00000-0  26461-4 0  9993,2 54760  53.2152 193.6317 0001261  84.8057 275.3079 15.08830797 78044,6917.909,95.438,540.646,538.901,0.0
54760.0,STARLINK-5220,PAYLOAD,2024-05-04 05:10:22,15.08827919,0.0001313,53.2158,192.1454,91.0703,269.044,-2.5724e-05,-6.97e-06,0.0,0 STARLINK-5220,1 54760U 22175C   24125.21553286 -.00000697  00000-0 -25724-4 0  9993,2 54760  53.2158 192.1454 0001313  91.0703 269.0440 15.08827919 75931,6917.917,95.438,540.691,538.874,0.0
54760.0,STARLINK-5220,PAYLOAD,2024-05-05 12:58:03,15.08848351,0.0001358,53.2168,186.1984,90.4541,269.6606,0.0001623,2.297e-05,0.0,0 STARLINK-5220,1 54760U 22175C   24126.54031827  .00002297  00000-0  16230-3 0  9999,2 54760  53.2168 186.1984 0001358  90.4541 269.6606 15.08848351 76131,6917.855,95.437,540.659,538.78,0.0
54760.0,STARLINK-5220,PAYLOAD,2024-05-05 20:54:59,15.08843145,0.0001361,53.217,184.7107,94.9155,265.1993,8.6518e-05,1.089e-05,0.0,0 STARLINK-5220,1 54760U 22175C   24126.87152243  .00001089  00000-0  86518-4 0  9996,2 54760  53.2170 184.7107 0001361  94.9155 265.1993 15.08843145 76180,6917.871,95.437,540.677,538.794,0.0
54760.0,STARLINK-5220,PAYLOAD,2024-05-06 11:13:27,15.08842263,0.0001427,53.2172,182.0351,101.1439,258.9713,0.00018509,2.659e-05,0.0,0 STARLINK-5220,1 54760U 22175C   24127.46768090  .00002659  00000-0  18509-3 0  9993,2 54760  53.2172 182.0351 0001427 101.1439 258.9713 15.08842263 78433,6917.873,95.437,540.726,538.751,0.0
54760.0,STARLINK-5220,PAYLOAD,2024-05-06 20:45:46,15.08844484,0.000134,53.2164,180.2469,83.4194,276.695,4.2764e-05,3.93e-06,0.0,0 STARLINK-5220,1 54760U 22175C   24127.86512227  .00000393  00000-0  42764-4 0  9990,2 54760  53.2164 180.2469 0001340  83.4194 276.6950 15.08844484 78491,6917.867,95.437,540.659,538.805,0.0
54760.0,STARLINK-5220,PAYLOAD,2024-05-07 03:07:19,15.08846859,0.0001309,53.216,179.0586,94.3388,265.7754,-4.4069e-05,-9.89e-06,0.0,0 STARLINK-5220,1 54760U 22175C   24128.13008334 -.00000989  00000-0 -44069-4 0  9993,2 54760  53.2160 179.0586 0001309  94.3388 265.7754 15.08846859 76378,6917.859,95.437,540.63,538.819,0.0
54760.0,STARLINK-5220,PAYLOAD,2024-05-07 11:04:14,15.08847525,0.0001182,53.2153,177.5721,100.5294,259.5831,-4.0408e-05,-9.31e-06,0.0,0 STARLINK-5220,1 54760U 22175C   24128.46128115 -.00000931  00000-0 -40408-4 0  9999,2 54760  53.2153 177.5721 0001182 100.5294 259.5831 15.08847525 78582,6917.857,95.437,540.54,538.905,0.0
54760.0,STARLINK-5220,PAYLOAD,2024-05-08 09:19:39,15.08835426,0.000123,53.2155,173.4103,91.5102,268.6031,-2.9154e-05,-7.52e-06,0.0,0 STARLINK-5220,1 54760U 22175C   24129.38864896 -.00000752  00000-0 -29154-4 0  9990,2 54760  53.2155 173.4103 0001230  91.5102 268.6031 15.08835426 76560,6917.894,95.438,540.61,538.908,0.0
54760.0,STARLINK-5220,PAYLOAD,2024-05-08 20:27:20,15.08835066,0.0001273,53.2153,171.3292,89.6899,270.4239,0.00012974,1.777e-05,0.0,0 STARLINK-5220,1 54760U 22175C   24129.85232474  .00001777  00000-0  12974-3 0  9990,2 54760  53.2153 171.3292 0001273  89.6899 270.4239 15.08835066 78790,6917.895,95.438,540.641,538.88,0.0
54760.0,STARLINK-5220,PAYLOAD,2024-05-09 09:10:25,15.08846073,0.0001263,53.2152,168.9497,87.6316,272.4821,0.00012772,1.746e-05,0.0,0 STARLINK-5220,1 54760U 22175C   24130.38223747  .00001746  00000-0  12772-3 0  9995,2 54760  53.2152 168.9497 0001263  87.6316 272.4821 15.08846073 76718,6917.862,95.437,540.601,538.853,0.0
54760.0,STARLINK-5220,PAYLOAD,2024-05-10 02:39:40,15.08838964,0.0001325,53.2154,165.6778,90.9915,269.1229,6.2619e-05,7.09e-06,0.0,0 STARLINK-5220,1 54760U 22175C   24131.11088546  .00000709  00000-0  62619-4 0  9997,2 54760  53.2154 165.6778 0001325  90.9915 269.1229 15.08838964 76824,6917.884,95.438,540.665,538.832,0.0
54760.0,STARLINK-5220,PAYLOAD,2024-05-10 09:01:13,15.08840991,0.0001297,53.2155,164.4901,82.4333,277.6807,6.5713e-05,7.58e-06,0.0,0 STARLINK-5220,1 54760U 22175C   24131.37584541  .00000758  00000-0  65713-4 0  9993,2 54760  53.2155 164.4901 0001297  82.4333 277.6807 15.08840991 79022,6917.877,95.437,540.64,538.845,0.0
54760.0,STARLINK-5220,PAYLOAD,2024-05-11 08:51:57,15.08880929,0.0001494,53.2161,160.0258,94.5436,265.5727,0.00037588,5.706e-05,0.0,0 STARLINK-5220,1 54760U 22175C   24132.36941846  .00005706  00000-0  37588-3 0  9994,2 54760  53.2161 160.0258 0001494  94.5436 265.5727 15.08880929 77012,6917.755,95.435,540.654,538.587,0.0
54760.0,STARLINK-5220,PAYLOAD,2024-05-11 18:24:17,15.08860824,0.0001629,53.2168,158.2435,92.1789,267.9389,8.8749e-05,1.125e-05,0.0,0 STARLINK-5220,1 54760U 22175C   24132.76686591  .00001125  00000-0  88749-4 0  9998,2 54760  53.2168 158.2435 0001629  92.1789 267.9389 15.08860824 77078,6917.817,95.436,540.809,538.555,0.0
54760.0,STARLINK-5220,PAYLOAD,2024-05-12 05:32:01,15.08813225,0.00013,53.2156,156.1621,98.9064,261.2075,-0.00037964,-6.32e-05,0.0,0 STARLINK-5220,1 54760U 22175C   24133.23057453 -.00006320  00000-0 -37964-3 0  9996,2 54760  53.2156 156.1621 0001300  98.9064 261.2075 15.08813225 77145,6917.962,95.439,540.727,538.928,0.0
54760.0,STARLINK-5220,PAYLOAD,2024-05-12 08:42:50,15.08773689,0.0001373,53.2156,155.5675,81.2566,278.8582,-0.00091238,-0.00014753,0.0,0 STARLINK-5220,1 54760U 22175C   24133.36307907 -.00014753  00000-0 -91238-3 0  9995,2 54760  53.2156 155.5675 0001373  81.2566 278.8582 15.08773689 77167,6918.083,95.442,540.898,538.998,0.0
54760.0,STARLINK-5220,PAYLOAD,2024-05-13 05:22:50,15.08817322,0.0001961,53.2162,151.7089,53.1771,306.94,-0.00017848,-3.126e-05,0.0,0 STARLINK-5220,1 54760U 22175C   24134.22419616 -.00003126  00000-0 -17848-3 0  9999,2 54760  53.2162 151.7089 0001961  53.1771 306.9400 15.08817322 77299,6917.95,95.439,541.171,538.458,0.0
54760.0,STARLINK-5220,PAYLOAD,2024-05-13 08:33:36,15.08835852,0.0001496,53.2149,151.1064,73.6565,286.4591,-6.1601e-05,-1.268e-05,0.0,0 STARLINK-5220,1 54760U 22175C   24134.35666843 -.00001268  00000-0 -61601-4 0  9991,2 54760  53.2149 151.1064 0001496  73.6565 286.4591 15.08835852 79475,6917.893,95.438,540.793,538.723,0.0
54760.0,STARLINK-5220,PAYLOAD,2024-05-13 18:05:55,15.08838854,0.0001446,53.2149,149.3218,72.5181,287.5969,5.7535e-05,6.28e-06,0.0,0 STARLINK-5220,1 54760U 22175C   24134.75410957  .00000628  00000-0  57535-4 0  9996,2 54760  53.2149 149.3218 0001446  72.5181 287.5969 15.08838854 79535,6917.884,95.438,540.749,538.749,0.0
54760.0,STARLINK-5220,PAYLOAD,2024-05-14 05:13:37,15.08830597,0.0001264,53.2143,147.2398,78.1957,281.9177,0.00053392,8.217e-05,0.0,0 STARLINK-5220,1 54760U 22175C   24135.21779886  .00008217  00000-0  53392-3 0  9995,2 54760  53.2143 147.2398 0001264  78.1957 281.9177 15.08830597 77449,6917.909,95.438,540.649,538.9,0.0
54760.0,STARLINK-5220,PAYLOAD,2024-05-14 09:59:47,15.08812349,0.0001405,53.2157,146.3481,74.3402,285.7745,0.0006998,0.00010859,0.0,0 STARLINK-5220,1 54760U 22175C   24135.41651737  .00010859  00000-0  69980-3 0  9996,2 54760  53.2157 146.3481 0001405  74.3402 285.7745 15.08812349 79638,6917.965,95.439,540.802,538.858,0.0
54760.0,STARLINK-5220,PAYLOAD,2024-05-14 17:56:43,15.08818062,0.0001362,53.2156,144.8626,71.6274,288.4866,0.00083288,0.00012984,0.0,0 STARLINK-5220,1 54760U 22175C   24135.74772115  .00012984  00000-0  83288-3 0  9994,2 54760  53.2156 144.8626 0001362  71.6274 288.4866 15.08818062 77528,6917.947,95.439,540.755,538.87,0.0
54760.0,STARLINK-5220,PAYLOAD,2024-05-15 05:04:23,15.08864831,0.0001482,53.215,142.7806,72.0039,288.1115,0.00032507,4.893e-05,0.0,0 STARLINK-5220,1 54760U 22175C   24136.21138098  .00004893  00000-0  32507-3 0  9991,2 54760  53.2150 142.7806 0001482  72.0039 288.1115 15.08864831 77592,6917.804,95.436,540.695,538.644,0.0
54760.0,STARLINK-5220,PAYLOAD,2024-05-15 06:39:46,15.08866344,0.0001465,53.2148,142.4832,72.2407,287.8745,0.00034643,5.234e-05,0.0,0 STARLINK-5220,1 54760U 22175C   24136.27761971  .00005234  00000-0  34643-3 0  9992,2 54760  53.2148 142.4832 0001465  72.2407 287.8745 15.08866344 79764,6917.8,95.436,540.678,538.651,0.0
54760.0,STARLINK-5220,PAYLOAD,2024-05-16 04:55:09,15.08855636,0.0001455,53.214,138.3201,70.9898,289.1251,6.7938e-05,7.94e-06,0.0,0 STARLINK-5220,1 54760U 22175C   24137.20497440  .00000794  00000-0  67938-4 0  9993,2 54760  53.2140 138.3201 0001455  70.9898 289.1251 15.08855636 77743,6917.833,95.437,540.704,538.691,0.0
